ONEWEB-0120             
1 47266U 20100J   25198.16664347 -.00000307  00000+0 -88878-3 0  9993
2 47266  87.8868  57.2960 0001748  78.1789 281.9536 13.12441255220782
ONEWEB-0121             
1 47267U 20100K   25198.53635402  .00000085  00000+0  20103-3 0  9993
2 47267  87.8857  57.1926 0001885  84.0486 276.0857 13.12438956220745
ONEWEB-0122             
1 47268U 20100L   25198.15015935  .00000218  00000+0  57036-3 0  9998
2 47268  87.8852  57.2744 0001916  79.4877 280.6467 13.12441139220607
ONEWEB-0123             
1 47269U 20100M   25198.52661882  .00000295  00000+0  78394-3 0  9993
2 47269  87.8855  57.2267 0001690  82.2761 277.8559 13.12441471220793
ONEWEB-0124             
1 47270U 20100N   25198.13406784  .00000508  00000+0  13760-2 0  9992
2 47270  87.8859  57.3033 0001847  89.0442 271.0898 13.12444669220622
ONEWEB-0125             
1 47271U 20100P   25198.11135482 -.00000245  00000+0 -71731-3 0  9998
2 47271  87.8863  57.2711 0001579  90.7116 269.4194 13.12444759220685
ONEWEB-0126             
1 47272U 20100Q   25198.13260026  .00000511  00000+0  13856-2 0  9991
2 47272  87.8876  57.2830 0001771  79.8296 280.3032 13.12443231220758
ONEWEB-0127             
1 47273U 20100R   25198.55580098 -.00000399  00000+0 -11451-2 0  9997
2 47273  87.8864  57.2153 0001834  78.2857 281.8477 13.12441146220831
